STARLINK-1938
1 27551C 21009D   21325.14447917  .00008928  00000-0  59829-3 0  3250
2 27551  53.0537 227.5755 0001899  71.4672  81.2179 15.06383850    12
